IRIDIUM 39              
1 25042U 97069D   25228.40573513  .00000611  00000+0  15440-3 0  9995
2 25042  86.3962 185.3289 0020080 103.7082 256.6360 14.49279808457945
IRIDIUM 38              
1 25043U 97069E   25228.35434898  .00000398  00000+0  12483-3 0  9998
2 25043  86.3970 207.8468 0000439 124.8712 235.2527 14.38158347454862
IRIDIUM 42              
1 25077U 97077A   25228.36481928  .00000392  00000+0  12707-3 0  9994
2 25077  86.3961 214.0827 0001518  83.0011 277.1358 14.36390219449837
IRIDIUM 44              
1 25078U 97077B   25227.94844699  .00000423  00000+0  12739-3 0  9996
2 25078  86.3992 196.0378 0002595 132.7063 227.4355 14.40281666452308
IRIDIUM 45              
1 25104U 97082A   25227.90538930  .00022389  00000+0  75589-3 0  9993
2 25104  86.3587  18.8441 0114201 107.4583 253.9185 15.24393551461130
IRIDIUM 24              
1 25105U 97082B   25227.91387381  .00000391  00000+0  11281-3 0  9995
2 25105  86.3863  54.9483 0009544 234.6500 125.3809 14.42144401451827
IRIDIUM 51              
1 25262U 98018A   25227.95049308  .00032274  00000+0  63525-3 0  9990
2 25262  86.3822  26.1464 0079836  20.8707 339.5775 15.43593092456238
IRIDIUM 57              
1 25273U 98019B   25227.96289234  .00000280  00000+0  89841-4 0  9990
2 25273  86.3970 120.2262 0002068  86.5543 273.5890 14.35926894433360
